{"type": "FeatureCollection", "features": [{"type": "Feature", "properties": {"norad_id": 28890, "name": "BEIJING 1", "group": "dmc", "lat": -69.33844093176198, "lon": -77.93398927276182, "alt_km": 698.1540112585735, "timestamp": "2025-12-23T05:02:11.690160+00:00", "meta": {"OBJECT_NAME": "BEIJING 1", "OBJECT_ID": "2005-043A", "EPOCH": "2025-12-22T22:58:17.053248", "MEAN_MOTION": 14.63374766, "ECCENTRICITY": 0.00157568, "INCLINATION": 98.2663, "RA_OF_ASC_NODE": 124.4887, "ARG_OF_PERICENTER": 111.1406, "MEAN_ANOMALY": 249.1482, "EPHEMERIS_TYPE": 0, "CLASSIFICATION_TYPE": "U", "NORAD_CAT_ID": 28890, "ELEMENT_SET_NO": 999, "REV_AT_EPOCH": 7487, "BSTAR": 7.6345403e-05, "MEAN_MOTION_DOT": 3.46e-06, "MEAN_MOTION_DDOT": 0}, "tle": {"line1": "1 28890U 05043A   25356.95714182  .00000346  00000+0  76345-4 0  9998", "line2": "2 28890  98.2663 124.4887 0015756 111.1406 249.1482 14.63374766 74878"}}, "geometry": {"type": "Point", "coordinates": [-77.93398927276182, -69.33844093176198]}}, {"type": "Feature", "properties": {"norad_id": 33320, "name": "HUANJING 1A (HJ-1A)", "group": "dmc", "lat": -47.723200031755944, "lon": -6.422904000110078, "alt_km": 616.5576737971942, "timestamp": "2025-12-23T05:02:11.690183+00:00", "meta": {"OBJECT_NAME": "HUANJING 1A (HJ-1A)", "OBJECT_ID": "2008-041A", "EPOCH": "2025-12-22T22:46:39.693792", "MEAN_MOTION": 14.83424951, "ECCENTRICITY": 0.00193716, "INCLINATION": 97.6542, "RA_OF_ASC_NODE": 344.8211, "ARG_OF_PERICENTER": 2.1192, "MEAN_ANOMALY": 358.0101, "EPHEMERIS_TYPE": 0, "CLASSIFICATION_TYPE": "U", "NORAD_CAT_ID": 33320, "ELEMENT_SET_NO": 999, "REV_AT_EPOCH": 93227, "BSTAR": 0.00018761049, "MEAN_MOTION_DOT": 1.494e-05, "MEAN_MOTION_DDOT": 0}, "tle": {"line1": "1 33320U 08041A   25356.94907053  .00001494  00000+0  18761-3 0  9995", "line2": "2 33320  97.6542 344.8211 0019371   2.1192 358.0101 14.83424951932277"}}, "geometry": {"type": "Point", "coordinates": [-6.422904000110078, -47.723200031755944]}}, {"type": "Feature", "properties": {"norad_id": 33321, "name": "HUANJING 1B (HJ-1B)", "group": "dmc", "lat": 27.848794572517427, "lon": 172.80724124279078, "alt_km": 627.8575737218753, "timestamp": "2025-12-23T05:02:11.690198+00:00", "meta": {"OBJECT_NAME": "HUANJING 1B (HJ-1B)", "OBJECT_ID": "2008-041B", "EPOCH": "2025-12-22T23:29:56.378400", "MEAN_MOTION": 14.82844247, "ECCENTRICITY": 0.0037865, "INCLINATION": 97.6399, "RA_OF_ASC_NODE": 348.5201, "ARG_OF_PERICENTER": 43.2937, "MEAN_ANOMALY": 317.1241, "EPHEMERIS_TYPE": 0, "CLASSIFICATION_TYPE": "U", "NORAD_CAT_ID": 33321, "ELEMENT_SET_NO": 999, "REV_AT_EPOCH": 93229, "BSTAR": 7.5562688e-05, "MEAN_MOTION_DOT": 5.67e-06, "MEAN_MOTION_DDOT": 0}, "tle": {"line1": "1 33321U 08041B   25356.97912475  .00000567  00000+0  75563-4 0  9997", "line2": "2 33321  97.6399 348.5201 0037865  43.2937 317.1241 14.82844247932295"}}, "geometry": {"type": "Point", "coordinates": [172.80724124279078, 27.848794572517427]}}, {"type": "Feature", "properties": {"norad_id": 33446, "name": "YAOGAN-4", "group": "dmc", "lat": 57.26801331790414, "lon": -85.30047019835946, "alt_km": 621.3659724874951, "timestamp": "2025-12-23T05:02:11.690210+00:00", "meta": {"OBJECT_NAME": "YAOGAN-4", "OBJECT_ID": "2008-061A", "EPOCH": "2025-12-22T17:26:15.520992", "MEAN_MOTION": 14.82709792, "ECCENTRICITY": 0.00130474, "INCLINATION": 97.9196, "RA_OF_ASC_NODE": 286.7284, "ARG_OF_PERICENTER": 287.9975, "MEAN_ANOMALY": 71.9816, "EPHEMERIS_TYPE": 0, "CLASSIFICATION_TYPE": "U", "NORAD_CAT_ID": 33446, "ELEMENT_SET_NO": 999, "REV_AT_EPOCH": 91951, "BSTAR": 0.00015592238, "MEAN_MOTION_DOT": 1.206e-05, "MEAN_MOTION_DDOT": 0}, "tle": {"line1": "1 33446U 08061A   25356.72656853  .00001206  00000+0  15592-3 0  9991", "line2": "2 33446  97.9196 286.7284 0013047 287.9975  71.9816 14.82709792919518"}}, "geometry": {"type": "Point", "coordinates": [-85.30047019835946, 57.26801331790414]}}, {"type": "Feature", "properties": {"norad_id": 35681, "name": "DEIMOS-1", "group": "dmc", "lat": -74.5157888963036, "lon": -51.972060111361905, "alt_km": 654.3252770060008, "timestamp": "2025-12-23T05:02:11.690221+00:00", "meta": {"OBJECT_NAME": "DEIMOS-1", "OBJECT_ID": "2009-041A", "EPOCH": "2025-12-22T22:59:33.720288", "MEAN_MOTION": 14.74967944, "ECCENTRICITY": 0.000256, "INCLINATION": 97.7151, "RA_OF_ASC_NODE": 157.086, "ARG_OF_PERICENTER": 63.691, "MEAN_ANOMALY": 296.4563, "EPHEMERIS_TYPE": 0, "CLASSIFICATION_TYPE": "U", "NORAD_CAT_ID": 35681, "ELEMENT_SET_NO": 999, "REV_AT_EPOCH": 88090, "BSTAR": 0.00014227281, "MEAN_MOTION_DOT": 9.09e-06, "MEAN_MOTION_DDOT": 0}, "tle": {"line1": "1 35681U 09041A   25356.95802917  .00000909  00000+0  14227-3 0  9995", "line2": "2 35681  97.7151 157.0860 0002560  63.6910 296.4563 14.74967944880905"}}, "geometry": {"type": "Point", "coordinates": [-51.972060111361905, -74.5157888963036]}}, {"type": "Feature", "properties": {"norad_id": 35683, "name": "UK-DMC 2", "group": "dmc", "lat": -62.017813645106855, "lon": 146.88156594138934, "alt_km": 651.274304945021, "timestamp": "2025-12-23T05:02:11.690233+00:00", "meta": {"OBJECT_NAME": "UK-DMC 2", "OBJECT_ID": "2009-041C", "EPOCH": "2025-12-22T22:48:44.535744", "MEAN_MOTION": 14.7564257, "ECCENTRICITY": 0.0001552, "INCLINATION": 97.8569, "RA_OF_ASC_NODE": 131.5655, "ARG_OF_PERICENTER": 91.8293, "MEAN_ANOMALY": 268.3095, "EPHEMERIS_TYPE": 0, "CLASSIFICATION_TYPE": "U", "NORAD_CAT_ID": 35683, "ELEMENT_SET_NO": 999, "REV_AT_EPOCH": 88057, "BSTAR": 0.00018084377, "MEAN_MOTION_DOT": 1.186e-05, "MEAN_MOTION_DDOT": 0}, "tle": {"line1": "1 35683U 09041C   25356.95051546  .00001186  00000+0  18084-3 0  9994", "line2": "2 35683  97.8569 131.5655 0001552  91.8293 268.3095 14.75642570880574"}}, "geometry": {"type": "Point", "coordinates": [146.88156594138934, -62.017813645106855]}}, {"type": "Feature", "properties": {"norad_id": 40715, "name": "DMC3-FM1", "group": "dmc", "lat": -4.739107705064034, "lon": -135.33932144899808, "alt_km": 615.1197579172122, "timestamp": "2025-12-23T05:02:11.690244+00:00", "meta": {"OBJECT_NAME": "DMC3-FM1", "OBJECT_ID": "2015-032A", "EPOCH": "2025-12-22T22:35:29.126112", "MEAN_MOTION": 14.85459521, "ECCENTRICITY": 0.00040324, "INCLINATION": 97.6686, "RA_OF_ASC_NODE": 223.762, "ARG_OF_PERICENTER": 279.6153, "MEAN_ANOMALY": 80.4607, "EPHEMERIS_TYPE": 0, "CLASSIFICATION_TYPE": "U", "NORAD_CAT_ID": 40715, "ELEMENT_SET_NO": 999, "REV_AT_EPOCH": 56374, "BSTAR": 0.0001769776, "MEAN_MOTION_DOT": 1.475e-05, "MEAN_MOTION_DDOT": 0}, "tle": {"line1": "1 40715U 15032A   25356.94130933  .00001475  00000+0  17698-3 0  9991", "line2": "2 40715  97.6686 223.7620 0004032 279.6153  80.4607 14.85459521563749"}}, "geometry": {"type": "Point", "coordinates": [-135.33932144899808, -4.739107705064034]}}, {"type": "Feature", "properties": {"norad_id": 40716, "name": "DMC3-FM2", "group": "dmc", "lat": -54.43044820304786, "lon": 34.60341771114874, "alt_km": 617.1121973524396, "timestamp": "2025-12-23T05:02:11.690254+00:00", "meta": {"OBJECT_NAME": "DMC3-FM2", "OBJECT_ID": "2015-032B", "EPOCH": "2025-12-22T21:30:51.727392", "MEAN_MOTION": 14.85457717, "ECCENTRICITY": 0.00046752, "INCLINATION": 97.6743, "RA_OF_ASC_NODE": 225.1697, "ARG_OF_PERICENTER": 286.6429, "MEAN_ANOMALY": 73.4274, "EPHEMERIS_TYPE": 0, "CLASSIFICATION_TYPE": "U", "NORAD_CAT_ID": 40716, "ELEMENT_SET_NO": 999, "REV_AT_EPOCH": 56373, "BSTAR": 6.0215741e-05, "MEAN_MOTION_DOT": 4.68e-06, "MEAN_MOTION_DDOT": 0}, "tle": {"line1": "1 40716U 15032B   25356.89643203  .00000468  00000+0  60216-4 0  9991", "line2": "2 40716  97.6743 225.1697 0004675 286.6429  73.4274 14.85457717563737"}}, "geometry": {"type": "Point", "coordinates": [34.60341771114874, -54.43044820304786]}}, {"type": "Feature", "properties": {"norad_id": 40717, "name": "DMC3-FM3", "group": "dmc", "lat": 59.97162084719508, "lon": 60.61187269760187, "alt_km": 609.1809861176189, "timestamp": "2025-12-23T05:02:11.690265+00:00", "meta": {"OBJECT_NAME": "DMC3-FM3", "OBJECT_ID": "2015-032C", "EPOCH": "2025-12-22T22:02:07.780704", "MEAN_MOTION": 14.85442641, "ECCENTRICITY": 0.00040794, "INCLINATION": 97.6796, "RA_OF_ASC_NODE": 226.8305, "ARG_OF_PERICENTER": 287.5437, "MEAN_ANOMALY": 72.5333, "EPHEMERIS_TYPE": 0, "CLASSIFICATION_TYPE": "U", "NORAD_CAT_ID": 40717, "ELEMENT_SET_NO": 999, "REV_AT_EPOCH": 56374, "BSTAR": 6.8912958e-05, "MEAN_MOTION_DOT": 5.42e-06, "MEAN_MOTION_DDOT": 0}, "tle": {"line1": "1 40717U 15032C   25356.91814561  .00000542  00000+0  68913-4 0  9997", "line2": "2 40717  97.6796 226.8305 0004079 287.5437  72.5333 14.85442641563744"}}, "geometry": {"type": "Point", "coordinates": [60.61187269760187, 59.97162084719508]}}]}